IRIDIUM 116             
1 43072U 17083C   24154.36628605  .00000215  00000+0  69703-4 0  9993
2 43072  86.3954 273.2584 0002191  95.7547 264.3899 14.34219049337410
IRIDIUM 130             
1 43073U 17083D   24154.40434228  .00000216  00000+0  70117-4 0  9997
2 43073  86.3962 273.4454 0002147  92.8945 267.2496 14.34218140337369
IRIDIUM 151             
1 43074U 17083E   24154.37897172  .00000194  00000+0  62051-4 0  9998
2 43074  86.3956 273.2936 0002378  90.9449 269.2020 14.34219067337386
IRIDIUM 134             
1 43075U 17083F   24154.41702650  .00000155  00000+0  48200-4 0  9997
2 43075  86.3958 273.2755 0002013  97.8445 262.2979 14.34215987337356
IRIDIUM 137             
1 43076U 17083G   24154.42970629  .00000216  00000+0  70136-4 0  9993
2 43076  86.3960 273.3484 0002708  97.1746 262.9757 14.34216714337426
IRIDIUM 141             
1 43077U 17083H   24154.42336945  .00000100  00000+0  28669-4 0  9997
2 43077  86.3955 273.2238 0002092  91.0438 269.0997 14.34218362337429
IRIDIUM 153             
1 43078U 17083J   24154.30577813  .00000163  00000+0  51041-4 0  9995
2 43078  86.3987 241.7292 0001988  82.5139 277.6283 14.34218833338518
IRIDIUM 131             
1 43079U 17083K   24154.41068530 -.00000173  00000+0 -68800-4 0  9993
2 43079  86.3960 273.3659 0002275  90.9476 269.1980 14.34217265337354
